STARLINK-31366          
1 59403U 24064F   26068.02308473 -.00003679  00000+0 -12422-3 0  9996
2 59403  42.9984  59.9515 0000169  94.4170 265.6700 15.27585402109122
LIZZIESAT-2 (LS-2)      
1 62383U 24247G   26068.49140277  .00009388  00000+0  34517-3 0  9997
2 62383  44.9909 117.0823 0004092 327.5136  32.5495 15.28222796 67716
